SPACEBEE-4              
1 43139U 18004AE  22323.23415057  .00299762  00000+0  19189-2 0  9996
2 43139  97.3681  52.0187 0002777 239.6531 120.4459 15.75452001270881
SPACEBEE-7              
1 43816U 18099BL  22324.42931119  .00003101  00000+0  26152-3 0  9995
2 43816  97.6108  28.9338 0013422  88.8163 271.4598 14.98816232216003
SPACEBEE-5              
1 43817U 18099BM  22324.17325924  .00009393  00000+0  67504-3 0  9994
2 43817  97.6204  32.7594 0006477  90.7427 269.4542 15.04468253216151
SPACEBEE-6              
1 43818U 18099BN  22324.12385867  .00005007  00000+0  40226-3 0  9992
2 43818  97.6118  29.8688 0016320  96.0207 264.2877 15.00371853216160
SPACEBEE-21             
1 46300U 20061AE  22323.77605014  .00023012  00000+0  89612-3 0  9990
2 46300  97.4360  34.2380 0000927  64.8113 295.3221 15.25992448122159
SPACEBEE-20             
1 46301U 20061AF  22323.97490638  .00023535  00000+0  91754-3 0  9997
2 46301  97.4390  34.5618 0000742  56.7486 303.3823 15.25949212122180
SPACEBEE-15             
1 46302U 20061AG  22324.18889588  .00028127  00000+0  10267-2 0  9999
2 46302  97.4362  35.2277 0000737  63.6079 296.5236 15.28094050122251
SPACEBEE-19             
1 46303U 20061AH  22323.15128559  .00031899  00000+0  12129-2 0  9999
2 46303  97.4365  33.8827 0001068  66.1517 293.9833 15.26716843122076
SPACEBEE-18             
1 46304U 20061AJ  22323.16605574  .00032505  00000+0  12354-2 0  9993
2 46304  97.4358  33.8444 0000808  62.5453 297.5868 15.26727484122075
SPACEBEE-10             
1 46305U 20061AK  22324.14851642  .00041200  00000+0  13173-2 0  9994
2 46305  97.4370  36.2609 0000249  35.7074 324.4185 15.32316495122312
SPACEBEE-17             
1 46306U 20061AL  22324.15679613  .00028748  00000+0  10590-2 0  9994
2 46306  97.4363  35.1423 0000715  69.1330 290.9986 15.27788453122284
SPACEBEE-11             
1 46307U 20061AM  22324.45297277  .00034331  00000+0  11601-2 0  9999
2 46307  97.4366  36.1396 0000403  65.3934 294.7348 15.30573298122333
SPACEBEE-16             
1 46308U 20061AN  22324.13433503  .00028434  00000+0  10409-2 0  9991
2 46308  97.4366  35.1913 0000587  40.5167 319.6116 15.27996805122243
SPACEBEE-12             
1 46309U 20061AP  22323.62139485  .00034799  00000+0  12091-2 0  9997
2 46309  97.4362  35.0993 0000483  58.6188 301.5099 15.29665692122198
SPACEBEE-13             
1 46310U 20061AQ  22324.14968991  .00030719  00000+0  10881-2 0  9992
2 46310  97.4362  35.4613 0000469  58.7070 301.4216 15.29063335122307
SPACEBEE-14             
1 46311U 20061AR  22324.18223704  .00031666  00000+0  11323-2 0  9997
2 46311  97.4367  35.4262 0000595  69.5880 290.5423 15.28746183122296
SPACEBEENZ-3            
1 46938U 20085K   22324.38313345  .00046721  00000+0  10195-2 0  9995
2 46938  97.4512 104.8798 0010618 244.3744 115.6408 15.44022842111438
SPACEBEENZ-4            
1 46939U 20085L   22323.66210423  .00043281  00000+0  98704-3 0  9990
2 46939  97.4522 103.8621 0010681 247.2354 112.7765 15.42724364111309
SPACEBEENZ-5            
1 46941U 20085N   22324.38985881  .00039768  00000+0  92985-3 0  9990
2 46941  97.4533 104.4399 0010654 244.7925 115.2218 15.41994512111404
SPACEBEENZ-6            
1 46942U 20085P   22324.33449529  .00037555  00000+0  90053-3 0  9996
2 46942  97.4544 104.2631 0010893 244.4485 115.5636 15.41243198111388
SPACEBEE-33             
1 46944U 20085R   22324.40204254  .00308038  00000+0  21464-2 0  9996
2 46944  97.4310 108.0274 0011760 276.9432  83.0494 15.73376171111678
SPACEBEE-29             
1 46945U 20085S   22324.36060784  .01558377  14598-2  28276-2 0  9992
2 46945  97.4181 109.4638 0012276 305.4246  54.5886 16.01709628111765
SPACEBEE-32             
1 46946U 20085T   22324.36009093  .00352538  00000+0  22295-2 0  9994
2 46946  97.4289 108.2312 0010028 275.1556  84.8565 15.75538000111686
SPACEBEE-31             
1 46947U 20085U   22324.37547476  .00641054  00000+0  27231-2 0  9997
2 46947  97.4256 108.6686 0012620 287.1750  72.8137 15.83613892111716
SPACEBEE-28             
1 46948U 20085V   22322.41609011  .07904373  24601-5  25235-2 0  9999
2 46948  97.4054 107.7605 0012863 311.7175  48.3016 16.26098667111481
SPACEBEE-30             
1 46949U 20085W   22324.34729958  .00815620  27200-3  27212-2 0  9999
2 46949  97.4250 109.0096 0012202 293.0754  66.9232 15.90111754111738
SPACEBEENZ-2            
1 46957U 20085AE  22323.61990052  .00052865  00000+0  11097-2 0  9995
2 46957  97.4507 104.3540 0010550 247.7211 112.2919 15.45139726111299
SPACEBEE-39             
1 46958U 20085AF  22324.39409644  .00983869  43127-3  27455-2 0  9997
2 46958  97.4253 109.9218 0011931 293.1450  66.8567 15.93628658111096
SPACEBEENZ-1            
1 46959U 20085AG  22324.37761906  .00053085  00000+0  10514-2 0  9993
2 46959  97.4500 105.4862 0010453 244.3593 115.6577 15.46840718110951
SPACEBEE-52             
1 47425U 21006N   22324.40412607  .00056324  00000+0  14418-2 0  9997
2 47425  97.4251  26.6518 0008092  79.0961 281.1195 15.39183696101304
SPACEBEE-46             
1 47426U 21006P   22324.10560924  .00038014  00000+0  11684-2 0  9999
2 47426  97.4252  25.1666 0009899  84.7653 275.4718 15.33549111101186
SPACEBEE-47             
1 47427U 21006Q   22323.59980250  .00035655  00000+0  11238-2 0  9993
2 47427  97.4257  24.4688 0009911  87.6051 272.6326 15.32761743101097
SPACEBEE-59             
1 47428U 21006R   22323.15611645  .00041442  00000+0  13378-2 0  9993
2 47428  97.4256  23.8482 0010592  91.0695 269.1760 15.31954547101012
SPACEBEE-62             
1 47429U 21006S   22323.61179282  .00009787  00000+0  44485-3 0  9991
2 47429  97.4215  21.1322 0013720  92.8116 267.4690 15.20870522100891
SPACEBEE-61             
1 47431U 21006U   22323.12513523  .00027705  00000+0  10668-2 0  9995
2 47431  97.4291  21.0350 0005688 103.1528 257.0346 15.26313927100806
SPACEBEE-49             
1 47432U 21006V   22324.16569138  .00023280  00000+0  90287-3 0  9994
2 47432  97.4304  21.9799 0005421 101.6183 258.5664 15.26112787100959
SPACEBEE-60             
1 47433U 21006W   22324.39951001  .00024660  00000+0  94550-3 0  9994
2 47433  97.4305  22.2979 0005213 101.1129 259.0696 15.26483251100991
SPACEBEE-53             
1 47434U 21006X   22323.63598995  .00036136  00000+0  12267-2 0  9995
2 47434  97.4313  22.4698 0004374 102.6217 257.5513 15.30405179100935
SPACEBEE-63             
1 47442U 21006AF  22323.62435836  .00008829  00000+0  44254-3 0  9997
2 47442  97.4254  18.9047 0007230 108.4742 251.7278 15.17564863100729
SPACEBEE-50             
1 47443U 21006AG  22323.39703741  .00029338  00000+0  11375-2 0  9990
2 47443  97.4294  21.2752 0005885 102.3286 257.8612 15.26071308100843
SPACEBEE-51             
1 47444U 21006AH  22323.99749210  .00039083  00000+0  12832-2 0  9995
2 47444  97.4222  22.4280 0005172  99.8740 260.3085 15.31463656101018
SPACEBEE-48             
1 47447U 21006AL  22324.12097610  .00045240  00000+0  13360-2 0  9993
2 47447  97.4197  24.1116 0007712  87.7376 272.4750 15.34795226101143
SPACEBEE-40             
1 47449U 21006AN  22324.13152342  .00035207  00000+0  11384-2 0  9996
2 47449  97.4203  23.4938 0008068  89.1900 271.0266 15.31960976101107
SPACEBEE-41             
1 47451U 21006AQ  22323.63227340  .00035076  00000+0  11422-2 0  9991
2 47451  97.4212  22.9885 0008213  91.4705 268.7477 15.31733892101029
SPACEBEE-42             
1 47455U 21006AU  22323.62207933  .00033251  00000+0  10968-2 0  9997
2 47455  97.4212  22.8750 0008180  91.2595 268.9583 15.31330577101013
SPACEBEE-55             
1 47459U 21006AY  22323.62252446  .00009643  00000+0  45894-3 0  9995
2 47459  97.4177  19.5721 0012135 103.9485 256.3100 15.19303048100814
SPACEBEE-54             
1 47460U 21006AZ  22324.15554581  .00033905  00000+0  11188-2 0  9997
2 47460  97.4221  23.4232 0008150  90.7577 269.4598 15.31314779101098
SPACEBEE-58             
1 47464U 21006BD  22323.13609656  .00039401  00000+0  12409-2 0  9996
2 47464  97.4253  24.0249 0010054  88.5567 271.6826 15.32762989101025
SPACEBEE-57             
1 47465U 21006BE  22323.10904152  .00009164  00000+0  45994-3 0  9992
2 47465  97.4195  17.8714 0006520 115.3232 244.8677 15.17509172100648
SPACEBEE-44             
1 47466U 21006BF  22323.61694234  .00027980  00000+0  10165-2 0  9993
2 47466  97.4223  21.4319 0005772 101.6039 258.5848 15.28237338100910
SPACEBEE-56             
1 47468U 21006BH  22323.44255524  .00035067  00000+0  13038-2 0  9998
2 47468  97.4231  21.0941 0005750 104.1810 256.0068 15.27425502100872
SPACEBEE-45             
1 47470U 21006BK  22323.89039803  .00027717  00000+0  10150-2 0  9995
2 47470  97.4230  21.7212 0006096 101.0354 259.1571 15.27975300100953
SPACEBEE-43             
1 47480U 21006BV  22324.12673208  .00029492  00000+0  10618-2 0  9997
2 47480  97.4221  21.9629 0005547 100.6269 259.5595 15.28523594100997
SPACEBEE-87             
1 47703U 21015E   22323.18293470  .00165161  00000+0  21454-2 0  9993
2 47703  97.3975  43.2180 0007126 243.7501 116.3022 15.58221816 96121
SPACEBEE-86             
1 47704U 21015F   22324.17813658  .00153019  00000+0  17991-2 0  9990
2 47704  97.3947  44.5777 0006660 238.4059 121.6549 15.60904444 96286
SPACEBEE-85             
1 47705U 21015G   22323.96388336  .00159968  00000+0  18455-2 0  9992
2 47705  97.3970  44.4144 0006165 234.0866 125.9820 15.61380154 96273
SPACEBEE-84             
1 47706U 21015H   22324.18642310  .00169657  00000+0  18945-2 0  9993
2 47706  97.3945  44.7170 0006314 241.6952 118.3669 15.62195159 96316
SPACEBEE-83             
1 47707U 21015J   22324.12759849  .00207458  00000+0  20870-2 0  9996
2 47707  97.3910  44.7504 0007787 252.4806 107.5603 15.64740283 96317
SPACEBEE-82             
1 47708U 21015K   22324.20529179  .00243641  00000+0  21639-2 0  9995
2 47708  97.3919  45.2552 0006353 247.4041 112.6548 15.67763135 96352
SPACEBEE-81             
1 47709U 21015L   22324.16946531  .00262659  00000+0  21506-2 0  9999
2 47709  97.3909  45.4789 0005493 240.2840 119.7875 15.69707928 96281
